NORAD_CAT_ID,OBJECT_NAME,OBJECT_TYPE,EPOCH,MEAN_MOTION,ECCENTRICITY,INCLINATION,RA_OF_ASC_NODE,ARG_OF_PERICENTER,MEAN_ANOMALY,BSTAR,MEAN_MOTION_DOT,MEAN_MOTION_DDOT,TLE_LINE0,TLE_LINE1,TLE_LINE2,SEMIMAJOR_AXIS,PERIOD,APOGEE,PERIGEE,DECAYED
55926.0,STARLINK-5921,PAYLOAD,2024-02-12 22:37:56,14.98325325,0.0002877,70.0036,30.0882,266.5014,93.5816,2.6141e-05,2.19e-06,0.0,0 STARLINK-5921,1 55926U 23037N   24043.94301687  .00000219  00000-0  26141-4 0  9993,2 55926  70.0036  30.0882 0002877 266.5014  93.5816 14.98325325 50777,6950.207,96.107,574.072,570.073,0.0
55926.0,STARLINK-5921,PAYLOAD,2024-02-13 03:26:19,14.98343174,0.0002464,70.0056,29.5843,203.8243,156.2802,0.00026837,3.112e-05,0.0,0 STARLINK-5921,1 55926U 23037N   24044.14327800  .00003112  00000-0  26837-3 0  9997,2 55926  70.0056  29.5843 0002464 203.8243 156.2802 14.98343174 51145,6950.152,96.106,573.73,570.305,0.0
55926.0,STARLINK-5921,PAYLOAD,2024-02-13 08:14:42,14.9835419,0.0002178,70.0031,29.0765,239.1525,120.942,0.00030844,3.591e-05,0.0,0 STARLINK-5921,1 55926U 23037N   24044.34354786  .00003591  00000-0  30844-3 0  9996,2 55926  70.0031  29.0765 0002178 239.1525 120.9420 14.98354190 50832,6950.118,96.105,573.497,570.469,0.0
55926.0,STARLINK-5921,PAYLOAD,2024-02-13 16:15:24,14.98332771,0.0001706,70.0037,28.2334,266.1981,93.8983,7.8394e-05,8.43e-06,0.0,0 STARLINK-5921,1 55926U 23037N   24044.67736794  .00000843  00000-0  78394-4 0  9995,2 55926  70.0037  28.2334 0001706 266.1981  93.8983 14.98332771 51220,6950.184,96.107,573.235,570.864,0.0
55926.0,STARLINK-5921,PAYLOAD,2024-02-14 05:04:29,14.98313673,0.0003049,70.0006,26.8848,266.6782,93.4028,0.00018827,2.153e-05,0.0,0 STARLINK-5921,1 55926U 23037N   24045.21145439  .00002153  00000-0  18827-3 0  9996,2 55926  70.0006  26.8848 0003049 266.6782  93.4028 14.98313673 51301,6950.243,96.108,574.228,569.989,0.0
55926.0,STARLINK-5921,PAYLOAD,2024-02-14 08:16:45,14.98315771,0.0003009,70.0007,26.548,266.4103,93.6712,0.00019729,2.261e-05,0.0,0 STARLINK-5921,1 55926U 23037N   24045.34497365  .00002261  00000-0  19729-3 0  9990,2 55926  70.0007  26.5480 0003009 266.4103  93.6712 14.98315771 50988,6950.237,96.108,574.193,570.011,0.0
55926.0,STARLINK-5921,PAYLOAD,2024-02-14 22:41:58,14.9834405,0.0002969,70.0006,25.0322,266.5691,93.5128,-0.00033537,-4.094e-05,0.0,0 STARLINK-5921,1 55926U 23037N   24045.94581239 -.00004094  00000-0 -33537-3 0  9991,2 55926  70.0006  25.0322 0002969 266.5691  93.5128 14.98344050 51076,6950.149,96.106,574.078,569.951,0.0
55926.0,STARLINK-5921,PAYLOAD,2024-02-15 03:30:22,14.98342672,0.0003002,70.0006,24.5272,267.1236,92.9579,-0.00032414,-3.96e-05,0.0,0 STARLINK-5921,1 55926U 23037N   24046.14609122 -.00003960  00000-0 -32414-3 0  9990,2 55926  70.0006  24.5272 0003002 267.1236  92.9579 14.98342672 51447,6950.154,96.106,574.105,569.932,0.0
55926.0,STARLINK-5921,PAYLOAD,2024-02-15 08:18:46,14.98345374,0.0002948,70.0007,24.0229,267.4128,92.6694,-0.00026341,-3.236e-05,0.0,0 STARLINK-5921,1 55926U 23037N   24046.34636635 -.00003236  00000-0 -26341-3 0  9999,2 55926  70.0007  24.0229 0002948 267.4128  92.6694 14.98345374 51139,6950.145,96.106,574.059,569.961,0.0
55926.0,STARLINK-5921,PAYLOAD,2024-02-15 22:43:58,14.98325693,0.00031,70.0009,22.508,267.1038,92.9766,0.00010143,1.117e-05,0.0,0 STARLINK-5921,1 55926U 23037N   24046.94720598  .00001117  00000-0  10143-3 0  9994,2 55926  70.0009  22.5080 0003100 267.1038  92.9766 14.98325693 51222,6950.206,96.107,574.226,569.917,0.0
55926.0,STARLINK-5921,PAYLOAD,2024-02-16 05:08:30,14.98329965,0.0003117,70.0009,21.835,268.2027,91.8776,0.00013275,1.491e-05,0.0,0 STARLINK-5921,1 55926U 23037N   24047.21424308  .00001491  00000-0  13275-3 0  9999,2 55926  70.0009  21.8350 0003117 268.2027  91.8776 14.98329965 51609,6950.193,96.107,574.224,569.892,0.0
55926.0,STARLINK-5921,PAYLOAD,2024-02-16 08:20:46,14.98333311,0.0003046,70.001,21.4983,267.3071,92.7739,0.00011694,1.303e-05,0.0,0 STARLINK-5921,1 55926U 23037N   24047.34776133  .00001303  00000-0  11694-3 0  9994,2 55926  70.0010  21.4983 0003046 267.3071  92.7739 14.98333311 51282,6950.183,96.107,574.165,569.931,0.0
55926.0,STARLINK-5921,PAYLOAD,2024-02-16 22:45:59,14.98313192,0.0002967,70.0016,19.9846,266.5907,93.4913,0.00025459,2.945e-05,0.0,0 STARLINK-5921,1 55926U 23037N   24047.94861020  .00002945  00000-0  25459-3 0  9997,2 55926  70.0016  19.9846 0002967 266.5907  93.4913 14.98313192 51375,6950.245,96.108,574.172,570.048,0.0
55926.0,STARLINK-5921,PAYLOAD,2024-02-17 03:34:24,14.98300444,0.0002966,70.0016,19.4797,264.8395,95.2426,0.00047897,5.622e-05,0.0,0 STARLINK-5921,1 55926U 23037N   24048.14889521  .00005622  00000-0  47897-3 0  9991,2 55926  70.0016  19.4797 0002966 264.8395  95.2426 14.98300444 51742,6950.284,96.109,574.211,570.088,0.0
55926.0,STARLINK-5921,PAYLOAD,2024-02-17 08:22:47,14.98334924,0.0002732,70.0016,18.9749,263.6521,96.4327,3.7278e-05,3.52e-06,0.0,0 STARLINK-5921,1 55926U 23037N   24048.34916271  .00000352  00000-0  37278-4 0  9994,2 55926  70.0016  18.9749 0002732 263.6521  96.4327 14.98334924 51778,6950.178,96.107,573.941,570.144,0.0
55926.0,STARLINK-5921,PAYLOAD,2024-02-17 14:47:19,14.98346192,0.0002744,70.0021,18.3022,266.3342,93.7503,-0.00030175,-3.693e-05,0.0,0 STARLINK-5921,1 55926U 23037N   24048.61620310 -.00003693  00000-0 -30175-3 0  9991,2 55926  70.0021  18.3022 0002744 266.3342  93.7503 14.98346192 51479,6950.143,96.106,573.915,570.101,0.0
55926.0,STARLINK-5921,PAYLOAD,2024-02-17 22:48:00,14.98331909,0.0002636,70.0018,17.4593,264.6711,95.4148,3.3066e-05,3.02e-06,0.0,0 STARLINK-5921,1 55926U 23037N   24048.95000421  .00000302  00000-0  33066-4 0  9998,2 55926  70.0018  17.4593 0002636 264.6711  95.4148 14.98331909 51529,6950.187,96.107,573.884,570.22,0.0
55926.0,STARLINK-5921,PAYLOAD,2024-02-18 08:24:48,14.98335058,0.0002691,70.0018,16.4494,266.6292,93.456,6.0709e-05,6.32e-06,0.0,0 STARLINK-5921,1 55926U 23037N   24049.35056107  .00000632  00000-0  60709-4 0  9995,2 55926  70.0018  16.4494 0002691 266.6292  93.4560 14.98335058 51924,6950.177,96.107,573.913,570.172,0.0
55926.0,STARLINK-5921,PAYLOAD,2024-02-18 14:49:20,14.98344483,0.000275,70.0019,15.7748,273.3544,86.73,-0.00013774,-1.737e-05,0.0,0 STARLINK-5921,1 55926U 23037N   24049.61759830 -.00001737  00000-0 -13774-3 0  9995,2 55926  70.0019  15.7748 0002750 273.3544  86.7300 14.98344483 51626,6950.148,96.106,573.924,570.102,0.0
55926.0,STARLINK-5921,PAYLOAD,2024-02-18 22:50:01,14.98321606,0.000264,70.0023,14.9348,265.6687,94.417,0.00019925,2.285e-05,0.0,0 STARLINK-5921,1 55926U 23037N   24049.95140236  .00002285  00000-0  19925-3 0  9997,2 55926  70.0023  14.9348 0002640 265.6687  94.4170 14.98321606 51676,6950.219,96.108,573.919,570.249,0.0
55926.0,STARLINK-5921,PAYLOAD,2024-02-19 06:50:41,14.98333945,0.0002649,70.0017,14.0936,264.6153,95.4704,2.0587e-05,1.53e-06,0.0,0 STARLINK-5921,1 55926U 23037N   24050.28520007  .00000153  00000-0  20587-4 0  9992,2 55926  70.0017  14.0936 0002649 264.6153  95.4704 14.98333945 51728,6950.181,96.107,573.887,570.205,0.0
55926.0,STARLINK-5921,PAYLOAD,2024-02-19 14:51:22,14.98325646,0.0002262,70.0036,13.2511,274.8808,85.2093,-5.5781e-05,-7.58e-06,0.0,0 STARLINK-5921,1 55926U 23037N   24050.61900891 -.00000758  00000-0 -55781-4 0  9999,2 55926  70.0036  13.2511 0002262 274.8808  85.2093 14.98325646 52111,6950.206,96.107,573.643,570.499,0.0
55926.0,STARLINK-5921,PAYLOAD,2024-02-19 22:52:03,14.98317461,0.0002927,70.0021,12.41,269.1881,90.8942,-0.00014728,-1.849e-05,0.0,0 STARLINK-5921,1 55926U 23037N   24050.95281517 -.00001849  00000-0 -14728-3 0  9990,2 55926  70.0021  12.4100 0002927 269.1881  90.8942 14.98317461 51824,6950.232,96.108,574.131,570.062,0.0
55926.0,STARLINK-5921,PAYLOAD,2024-02-20 06:52:43,14.98323531,0.000274,70.0018,11.5676,266.5137,93.5709,-8.9959e-05,-1.166e-05,0.0,0 STARLINK-5921,1 55926U 23037N   24051.28661148 -.00001166  00000-0 -89959-4 0  9990,2 55926  70.0018  11.5676 0002740 266.5137  93.5709 14.98323531 51877,6950.213,96.107,573.982,570.174,0.0
55926.0,STARLINK-5921,PAYLOAD,2024-02-20 14:53:23,14.98327842,0.0002675,70.0026,10.7256,269.9429,90.1423,-5.4368e-05,-7.42e-06,0.0,0 STARLINK-5921,1 55926U 23037N   24051.62040897 -.00000742  00000-0 -54368-4 0  9995,2 55926  70.0026  10.7256 0002675 269.9429  90.1423 14.98327842 52268,6950.2,96.107,573.924,570.205,0.0
55926.0,STARLINK-5921,PAYLOAD,2024-02-20 22:54:03,14.98329138,0.000293,70.0013,9.8849,269.0224,91.0599,3.0716e-05,2.74e-06,0.0,0 STARLINK-5921,1 55926U 23037N   24051.95420510  .00000274  00000-0  30716-4 0  9994,2 55926  70.0013   9.8849 0002930 269.0224  91.0599 14.98329138 51970,6950.196,96.107,574.097,570.024,0.0
55926.0,STARLINK-5921,PAYLOAD,2024-02-21 03:42:27,14.983336,0.0002921,70.0012,9.3794,267.7815,92.3009,2.9702e-05,2.61e-06,0.0,0 STARLINK-5921,1 55926U 23037N   24052.15448227  .00000261  00000-0  29702-4 0  9991,2 55926  70.0012   9.3794 0002921 267.7815  92.3009 14.98333600 52345,6950.182,96.107,574.077,570.017,0.0
55926.0,STARLINK-5921,PAYLOAD,2024-02-21 06:54:43,14.983374,0.0002908,70.0014,9.0427,268.1871,91.8955,7.4363e-05,7.95e-06,0.0,0 STARLINK-5921,1 55926U 23037N   24052.28799815  .00000795  00000-0  74363-4 0  9992,2 55926  70.0014   9.0427 0002908 268.1871  91.8955 14.98337400 52020,6950.17,96.107,574.056,570.014,0.0
55926.0,STARLINK-5921,PAYLOAD,2024-02-21 22:56:04,14.98321886,0.0002956,70.0015,7.3593,268.5899,91.4922,9.3458e-05,1.022e-05,0.0,0 STARLINK-5921,1 55926U 23037N   24052.95560728  .00001022  00000-0  93458-4 0  9995,2 55926  70.0015   7.3593 0002956 268.5899  91.4922 14.98321886 52125,6950.218,96.108,574.137,570.028,0.0
55926.0,STARLINK-5921,PAYLOAD,2024-02-22 03:44:28,14.98333976,0.0002683,70.002,6.8549,266.7879,93.2973,-4.9158e-05,-6.79e-06,0.0,0 STARLINK-5921,1 55926U 23037N   24053.15588449 -.00000679  00000-0 -49158-4 0  9995,2 55926  70.0020   6.8549 0002683 266.7879  93.2973 14.98333976 52490,6950.181,96.107,573.91,570.181,0.0
